#aV2014  7  9  0  0  0.00000000     288 DD+AD WGS84 FIT  NGA
## 1800 259200.00000000   300.00000000 56847 0.0000000000000
+   32     1  2  3  4  5  6  7  8  9 10 11 12 13 14 15 16 17
+         18 19 20 21 22 23 24 25 26 27 28 29 30 31 32  0  0
+          0  0  0  0  0  0  0  0  0  0  0  0  0  0  0  0  0
+          0  0  0  0  0  0  0  0  0  0  0  0  0  0  0  0  0
+          0  0  0  0  0  0  0  0  0  0  0  0  0  0  0  0  0
++         2  2  2  2  2  2  2  2  2  2  2  2  2  2  2  2  2
++         2  2  2  2  2  2  2  2  2  2  2  2  2  2  2  0  0
++         0  0  0  0  0  0  0  0  0  0  0  0  0  0  0  0  0
++         0  0  0  0  0  0  0  0  0  0  0  0  0  0  0  0  0
++         0  0  0  0  0  0  0  0  0  0  0  0  0  0  0  0  0
%c cc cc ccc ccc cccc cccc cccc cccc ccccc ccccc ccccc ccccc
%c cc cc ccc ccc cccc cccc cccc cccc ccccc ccccc ccccc ccccc
%f  0.0000000  0.000000000  0.00000000000  0.000000000000000
%f  0.0000000  0.000000000  0.00000000000  0.000000000000000
%i    0    0    0    0      0      0      0      0         0
%i    0    0    0    0      0      0      0      0         0
/*      NGA, ST. LOUIS,MO.                                  
/*   EPHEMERIS COMPUTED FROM  1 DAYS OF DATA                
/*   EPOCHA SMOOTHER                                       
/* CCCCCCCCCCCCCCCCCCCCCCCCCCCCCCCCCCCCCCCCCCCCCCCCCCCCCCCCC
*  2014  7  9 11  0  0.00000000
P  1 -20330.182603  -9285.304042  14427.565905     17.246332                    
V  1  -9864.829159 -15570.333457 -23718.237884      0.008645                    
P  2  12697.954579  22682.739959   6882.935741    505.733497                    
V  2  -7527.633526  -4442.654906  29349.852245      0.021798                    
P  3 -16997.443102  -9087.020822 -18893.942342    388.228660                    
V  3  21323.737015  -8401.757647 -15468.463297      0.049187                    
P  4  -5602.728108  16156.914337  19930.032613      7.382388                    
V  4 -17719.462703 -19313.857546  10771.001175      0.000291                    
P  5   5231.416269  19973.919153 -16647.540709   -359.502491                    
V  5  -9553.320831  19028.388183  20035.229624      0.030563                    
P  6   2591.328253  20978.814205  16077.281716      1.639733                    
V  6 -14366.005665 -14649.122572  21405.672597     -0.024653                    
P  7 -15248.875449   4009.623455 -21350.660254    366.712290                    
V  7 -16261.994929 -21795.970619   7156.257564      0.042830                    
P  8 -10658.793511   9855.392686 -22028.984870     14.646379                    
V  8 -15336.052311 -23832.943914  -3814.264881      0.002448                    
P  9  -4848.384062  16270.873237 -20897.640904    141.312556                    
V  9 -16458.897817 -19286.056665 -11702.299090      0.582240                    
P 10  -7291.072312  25101.137251  -3500.502167   -132.890336                    
V 10  -4979.325483   2422.994356  31174.085209     -0.015298                    
P 11 -23691.522248 -11418.159614   3897.839678   -503.838910                    
V 11  -2118.861201  -7027.433244 -29473.239213     -0.029899                    
P 12  14224.995584   3717.941944  22029.998394    216.898625                    
V 12 -10905.302394  25895.101238   2873.224623      0.025535                    
P 13 -25947.809555   4277.962864  -4459.183142    -18.735322                    
V 13  -5561.698836  -1817.326128  31346.177485     -0.038726                    
P 14  13271.002076 -13828.617542  18546.932119    156.100299                    
V 14  23154.895895   -486.429659 -17290.556806     -0.035504                    
P 15  22589.938978   5441.542995 -13185.693661   -189.960393                    
V 15 -15781.857016   5760.530396 -24471.367592     -0.021838                    
P 16  -3595.588097 -19682.869555 -17333.034558   -208.592180                    
V 16  10375.545643 -19428.300939  20321.040620      0.022030                    
P 17 -12743.594851  14272.968057  18581.882960   -107.545293                    
V 17 -23135.471443   1188.819592 -17240.311183     -0.029571                    
P 18  16064.862436 -16686.537176 -12238.901345    330.464757                    
V 18  -2416.948310  16684.978977 -25312.839851      0.024078                    
P 19 -20279.472837  -9119.561907 -15009.081097   -467.195801                    
V 19  18467.633114  -2737.408974 -23083.057579     -0.020468                    
P 20 -16455.814027    615.685847  20644.869433    208.702396                    
V 20   7188.878878 -25818.542089   6509.391565      0.041541                    
P 21  12827.899828  -8806.764546 -20896.770573   -371.626589                    
V 21  17875.968634  21741.176222   1319.597437     -0.021412                    
P 22   9885.203952 -24532.931844   -842.962217    248.722089                    
V 22   3419.825184   2709.762604 -30974.804675      0.032270                    
P 23 -26019.866376   -783.134507   6434.897614    -35.146750                    
V 23   7468.157161  -3732.471129  29868.587419     -0.029898                    
P 24  20599.127953  12748.355733  10980.010635    -31.513009                    
V 24   6980.449530  12331.004562 -27261.079530     -0.005611                    
P 25  16760.732030  -9877.914595  17940.370010     24.840886                    
V 25  -6852.933409  21951.319247  18536.944069     -0.001393                    
P 26  12164.229786  13134.979960 -20369.012357     20.319491                    
V 26 -24221.138044   2099.040579 -13274.664912     -0.124596                    
P 27  -9607.230816 -13200.333747 -20973.482052     -3.610704                    
V 27  26133.561164  -4910.207128  -8822.380605      0.030239                    
P 28 -13158.487142  22568.368478  -3767.189395    368.294986                    
V 28    380.526588  -5935.805615 -31937.677925      0.027946                    
P 29  25695.690897  -5344.584273  -3878.723012    545.433414                    
V 29   5202.007219   1997.532317  31487.188845      0.027105                    
P 30  -8169.815856  14102.897102 -20972.183959    -29.566344                    
V 30 -15720.832930 -21504.557354  -8379.071876     -0.064661                    
P 31  -3315.823183 -21405.335345  15305.782247    333.615020                    
V 31  13070.198122  14252.736492  23289.108812     -0.002154                    
P 32  -9725.378932 -13900.211957  20603.987993   -389.183927                    
V 32  11997.615695 -23048.615985  -9370.698599      0.083689                    
EOF
